{
  "norad_id": 63589,
  "name": "STARLINK-33788",
  "history": [
    {
      "epoch": "2026-03-28T18:08:36.921696",
      "apogee_km": 483.93426298640406,
      "perigee_km": 482.01438681547097,
      "latitude_deg": -35.74176643216977,
      "longitude_deg": -108.52564256009646,
      "semi_major_axis_km": 6861.111324900938,
      "eccentricity": 0.00013991,
      "inclination_deg": 42.9985,
      "raan_deg": 214.2527,
      "arg_perigee_deg": 281.5843,
      "mean_anomaly_deg": 78.4851,
      "mean_motion_rev_day": 15.27604971
    }
  ]
}